{"type": "FeatureCollection", "features": [ {"type": "Feature", "properties": {"norad_id": 66989, "name": "CZ-4B R/B", "group": "last-30-days", "lat": 4.923768565150939, "lon": -118.22270963717965, "alt_km": 451.60213637418656, "timestamp": "2025-12-21T03:56:49.617995+00:00", "meta": {"OBJECT_NAME": "CZ-4B R/B", "OBJECT_ID": "2025-289B", "EPOCH": "2025-12-20T19:32:43.290816", "MEAN_MOTION": 15.69103245, "ECCENTRICITY": 0.014306, "INCLINATION": 97.5252, "RA_OF_ASC_NODE": 60.7486, "ARG_OF_PERICENTER": 332.3218, "MEAN_ANOMALY": 27.0478, "EPHEMERIS_TYPE": 0, "CLASSIFICATION_TYPE": "U", "NORAD_CAT_ID": 66989, "ELEMENT_SET_NO": 999, "REV_AT_EPOCH": 183, "BSTAR": 0.00044632, "MEAN_MOTION_DOT": 0.00093128, "MEAN_MOTION_DDOT": 4.7524e-06}, "tle": {"line1": "1 66989U 25289B   25354.81438994  .00093128  47524-5  44632-3 0  9991", "line2": "2 66989  97.5252  60.7486 0143060 332.3218  27.0478 15.69103245  1833"}}, "geometry": {"type": "Point", "coordinates": [-118.22270963717965, 4.923768565150939]}}, {"type": "Feature", "properties": {"norad_id": 66990, "name": "TJS-22", "group": "last-30-days", "lat": -1.8589870220462992, "lon": -144.38283108951222, "alt_km": 35777.465334823675, "timestamp": "2025-12-21T03:56:49.618007+00:00", "meta": {"OBJECT_NAME": "TJS-22", "OBJECT_ID": "2025-290A", "EPOCH": "2025-12-20T08:40:18.960384", "MEAN_MOTION": 1.00270764, "ECCENTRICITY": 0.0003443, "INCLINATION": 1.9695, "RA_OF_ASC_NODE": 285.0191, "ARG_OF_PERICENTER": 341.9346, "MEAN_ANOMALY": 18.7806, "EPHEMERIS_TYPE": 0, "CLASSIFICATION_TYPE": "U", "NORAD_CAT_ID": 66990, "ELEMENT_SET_NO": 999, "REV_AT_EPOCH": 23, "BSTAR": 0, "MEAN_MOTION_DOT": 1.9e-07, "MEAN_MOTION_DDOT": 0}, "tle": {"line1": "1 66990U 25290A   25354.36133056  .00000019  00000+0  00000+0 0  9992", "line2": "2 66990   1.9695 285.0191 0003443 341.9346  18.7806  1.00270764   234"}}, "geometry": {"type": "Point", "coordinates": [-144.38283108951222, -1.8589870220462992]}}, {"type": "Feature", "properties": {"norad_id": 66991, "name": "CZ-3B R/B", "group": "last-30-days", "lat": 1.0545097362654405, "lon": -59.741175990772604, "alt_km": 34106.13788898863, "timestamp": "2025-12-21T03:56:49.618018+00:00", "meta": {"OBJECT_NAME": "CZ-3B R/B", "OBJECT_ID": "2025-290B", "EPOCH": "2025-12-15T17:23:33.043200", "MEAN_MOTION": 2.38388611, "ECCENTRICITY": 0.7240884, "INCLINATION": 28.4636, "RA_OF_ASC_NODE": 300.4666, "ARG_OF_PERICENTER": 182.7002, "MEAN_ANOMALY": 168.625, "EPHEMERIS_TYPE": 0, "CLASSIFICATION_TYPE": "U", "NORAD_CAT_ID": 66991, "ELEMENT_SET_NO": 999, "REV_AT_EPOCH": 16, "BSTAR": 0.00075879, "MEAN_MOTION_DOT": 0.00057911, "MEAN_MOTION_DDOT": -2.0514e-07}, "tle": {"line1": "1 66991U 25290B   25349.72468800  .00057911 -20514-6  75879-3 0  9998", "line2": "2 66991  28.4636 300.4666 7240884 182.7002 168.6250  2.38388611   165"}}, "geometry": {"type": "Point", "coordinates": [-59.741175990772604, 1.0545097362654405]}}, {"type": "Feature", "properties": {"norad_id": 66993, "name": "2025-292A", "group": "last-30-days", "lat": -57.72351932332818, "lon": -124.65625020260768, "alt_km": 550.2792651375439, "timestamp": "2025-12-21T03:56:49.618027+00:00", "meta": {"OBJECT_NAME": "2025-292A", "OBJECT_ID": "2025-292A", "EPOCH": "2025-12-20T18:54:31.720032", "MEAN_MOTION": 15.04548171, "ECCENTRICITY": 0.0014055, "INCLINATION": 97.652, "RA_OF_ASC_NODE": 67.2611, "ARG_OF_PERICENTER": 242.7246, "MEAN_ANOMALY": 117.2548, "EPHEMERIS_TYPE": 0, "CLASSIFICATION_TYPE": "U", "NORAD_CAT_ID": 66993, "ELEMENT_SET_NO": 999, "REV_AT_EPOCH": 160, "BSTAR": 0.00018045, "MEAN_MOTION_DOT": 2.472e-05, "MEAN_MOTION_DDOT": 0}, "tle": {"line1": "1 66993U 25292A   25354.78786713  .00002472  00000+0  18045-3 0  9994", "line2": "2 66993  97.6520  67.2611 0014055 242.7246 117.2548 15.04548171  1600"}}, "geometry": {"type": "Point", "coordinates": [-124.65625020260768, -57.72351932332818]}}, {"type": "Feature", "properties": {"norad_id": 66994, "name": "2025-292B", "group": "last-30-days", "lat": -59.412457881485274, "lon": -125.51258148185045, "alt_km": 550.3382648923025, "timestamp": "2025-12-21T03:56:49.618039+00:00", "meta": {"OBJECT_NAME": "2025-292B", "OBJECT_ID": "2025-292B", "EPOCH": "2025-12-20T18:54:04.814208", "MEAN_MOTION": 15.04590905, "ECCENTRICITY": 0.0013811, "INCLINATION": 97.653, "RA_OF_ASC_NODE": 67.2627, "ARG_OF_PERICENTER": 242.9132, "MEAN_ANOMALY": 117.0686, "EPHEMERIS_TYPE": 0, "CLASSIFICATION_TYPE": "U", "NORAD_CAT_ID": 66994, "ELEMENT_SET_NO": 999, "REV_AT_EPOCH": 160, "BSTAR": 0.00020412, "MEAN_MOTION_DOT": 2.808e-05, "MEAN_MOTION_DDOT": 0}, "tle": {"line1": "1 66994U 25292B   25354.78755572  .00002808  00000+0  20412-3 0  9998", "line2": "2 66994  97.6530  67.2627 0013811 242.9132 117.0686 15.04590905  1607"}}, "geometry": {"type": "Point", "coordinates": [-125.51258148185045, -59.412457881485274]}}, {"type": "Feature", "properties": {"norad_id": 66995, "name": "2025-292C", "group": "last-30-days", "lat": -59.94728364673185, "lon": -125.80167587555763, "alt_km": 550.0576876047908, "timestamp": "2025-12-21T03:56:49.618048+00:00", "meta": {"OBJECT_NAME": "2025-292C", "OBJECT_ID": "2025-292C", "EPOCH": "2025-12-20T18:53:56.487840", "MEAN_MOTION": 15.0461795, "ECCENTRICITY": 0.0014108, "INCLINATION": 97.652, "RA_OF_ASC_NODE": 67.2617, "ARG_OF_PERICENTER": 243.2851, "MEAN_ANOMALY": 116.6932, "EPHEMERIS_TYPE": 0, "CLASSIFICATION_TYPE": "U", "NORAD_CAT_ID": 66995, "ELEMENT_SET_NO": 999, "REV_AT_EPOCH": 160, "BSTAR": 0.00022232, "MEAN_MOTION_DOT": 3.067e-05, "MEAN_MOTION_DDOT": 0}, "tle": {"line1": "1 66995U 25292C   25354.78745935  .00003067  00000+0  22232-3 0  9991", "line2": "2 66995  97.6520  67.2617 0014108 243.2851 116.6932 15.04617950  1607"}}, "geometry": {"type": "Point", "coordinates": [-125.80167587555763, -59.94728364673185]}}, {"type": "Feature", "properties": {"norad_id": 66996, "name": "2025-292D", "group": "last-30-days", "lat": -61.57172501904612, "lon": -126.74414152962588, "alt_km": 550.5923223694863, "timestamp": "2025-12-21T03:56:49.618058+00:00", "meta": {"OBJECT_NAME": "2025-292D", "OBJECT_ID": "2025-292D", "EPOCH": "2025-12-20T18:53:30.108192", "MEAN_MOTION": 15.04644845, "ECCENTRICITY": 0.0013267, "INCLINATION": 97.6514, "RA_OF_ASC_NODE": 67.2614, "ARG_OF_PERICENTER": 245.9791, "MEAN_ANOMALY": 114.0047, "EPHEMERIS_TYPE": 0, "CLASSIFICATION_TYPE": "U", "NORAD_CAT_ID": 66996, "ELEMENT_SET_NO": 999, "REV_AT_EPOCH": 160, "BSTAR": 0.00015026, "MEAN_MOTION_DOT": 2.053e-05, "MEAN_MOTION_DDOT": 0}, "tle": {"line1": "1 66996U 25292D   25354.78715403  .00002053  00000+0  15026-3 0  9996", "line2": "2 66996  97.6514  67.2614 0013267 245.9791 114.0047 15.04644845  1607"}}, "geometry": {"type": "Point", "coordinates": [-126.74414152962588, -61.57172501904612]}}, {"type": "Feature", "properties": {"norad_id": 66997, "name": "2025-292E", "group": "last-30-days", "lat": -64.64706962550075, "lon": -128.84773003000086, "alt_km": 550.0991644159103, "timestamp": "2025-12-21T03:56:49.618067+00:00", "meta": {"OBJECT_NAME": "2025-292E", "OBJECT_ID": "2025-292E", "EPOCH": "2025-12-20T18:52:40.505088", "MEAN_MOTION": 15.04730857, "ECCENTRICITY": 0.0013651, "INCLINATION": 97.6534, "RA_OF_ASC_NODE": 67.2647, "ARG_OF_PERICENTER": 246.9445, "MEAN_ANOMALY": 113.0343, "EPHEMERIS_TYPE": 0, "CLASSIFICATION_TYPE": "U", "NORAD_CAT_ID": 66997, "ELEMENT_SET_NO": 999, "REV_AT_EPOCH": 159, "BSTAR": 0.00017096, "MEAN_MOTION_DOT": 2.35e-05, "MEAN_MOTION_DDOT": 0}, "tle": {"line1": "1 66997U 25292E   25354.78657992  .00002350  00000+0  17096-3 0  9994", "line2": "2 66997  97.6534  67.2647 0013651 246.9445 113.0343 15.04730857  1595"}}, "geometry": {"type": "Point", "coordinates": [-128.84773003000086, -64.64706962550075]}}, {"type": "Feature", "properties": {"norad_id": 66998, "name": "2025-292F", "group": "last-30-days", "lat": -70.5155754114614, "lon": -134.69932014032068, "alt_km": 548.9163139019192, "timestamp": "2025-12-21T03:56:49.618075+00:00", "meta": {"OBJECT_NAME": "2025-292F", "OBJECT_ID": "2025-292F", "EPOCH": "2025-12-20T18:51:03.936672", "MEAN_MOTION": 15.0490086, "ECCENTRICITY": 0.0014762, "INCLINATION": 97.6554, "RA_OF_ASC_NODE": 67.2686, "ARG_OF_PERICENTER": 247.8027, "MEAN_ANOMALY": 112.1633, "EPHEMERIS_TYPE": 0, "CLASSIFICATION_TYPE": "U", "NORAD_CAT_ID": 66998, "ELEMENT_SET_NO": 999, "REV_AT_EPOCH": 160, "BSTAR": 0.00021799, "MEAN_MOTION_DOT": 3.029e-05, "MEAN_MOTION_DDOT": 0}, "tle": {"line1": "1 66998U 25292F   25354.78546223  .00003029  00000+0  21799-3 0  9998", "line2": "2 66998  97.6554  67.2686 0014762 247.8027 112.1633 15.04900860  1608"}}, "geometry": {"type": "Point", "coordinates": [-134.69932014032068, -70.5155754114614]}}, {"type": "Feature", "properties": {"norad_id": 66999, "name": "2025-292G", "group": "last-30-days", "lat": -72.78014661299761, "lon": -138.07747187114637, "alt_km": 549.0764555395117, "timestamp": "2025-12-21T03:56:49.618084+00:00", "meta": {"OBJECT_NAME": "2025-292G", "OBJECT_ID": "2025-292G", "EPOCH": "2025-12-20T18:50:25.376352", "MEAN_MOTION": 15.04964581, "ECCENTRICITY": 0.0014284, "INCLINATION": 97.6563, "RA_OF_ASC_NODE": 67.2703, "ARG_OF_PERICENTER": 249.8776, "MEAN_ANOMALY": 110.0913, "EPHEMERIS_TYPE": 0, "CLASSIFICATION_TYPE": "U", "NORAD_CAT_ID": 66999, "ELEMENT_SET_NO": 999, "REV_AT_EPOCH": 160, "BSTAR": 0.00021623, "MEAN_MOTION_DOT": 3.009e-05, "MEAN_MOTION_DDOT": 0}, "tle": {"line1": "1 66999U 25292G   25354.78501593  .00003009  00000+0  21623-3 0  9994", "line2": "2 66999  97.6563  67.2703 0014284 249.8776 110.0913 15.04964581  1609"}}, "geometry": {"type": "Point", "coordinates": [-138.07747187114637, -72.78014661299761]}}]}